SAR-LUPE 2              
1 31797U 07030A   26155.16913181  .00032926  00000+0  63041-3 0  9994
2 31797  98.1032 258.0116 0009918 155.6223 204.5496 15.47939644 54928
SAPPHIRE                
1 39088U 13009C   26155.05544068  .00000126  00000+0  58949-4 0  9999
2 39088  98.4257 334.8234 0010031 290.2950  69.7158 14.35236900694697
PRAETORIAN SDA_602      
1 65565U 25203A   26155.01437075  .00000071  00000+0  53079-4 0  9990
2 65565  81.3040  22.9720 0005148 222.9758 137.0997 13.84341836 36871
PRAETORIAN SDA_603      
1 65566U 25203B   26155.03689411  .00000205  00000+0  17406-3 0  9998
2 65566  81.3049  22.8576 0008777 225.5719 134.4720 13.83904345 36881
PRAETORIAN SDA_604      
1 65567U 25203C   26155.04846346  .00000145  00000+0  12151-3 0  9997
2 65567  81.3062  23.2398 0004693 231.4176 128.6560 13.83046131 36865
PRAETORIAN SDA_605      
1 65568U 25203D   26155.01746448  .00000094  00000+0  75106-4 0  9990
2 65568  81.3027  22.9442 0007446 221.1321 138.9275 13.83433238 36876
PRAETORIAN SDA_606      
1 65569U 25203E   26154.99975660  .00000108  00000+0  87249-4 0  9994
2 65569  81.3063  23.1768 0005085 219.3687 140.7100 13.83406286 36862
PRAETORIAN SDA_607      
1 65570U 25203F   26155.01613816  .00000204  00000+0  17198-3 0  9994
2 65570  81.3050  22.8456 0008059 225.6674 134.3823 13.84283742 36884
PRAETORIAN SDA_608      
1 65571U 25203G   26155.06139628  .00000105  00000+0  84207-4 0  9990
2 65571  81.3015  22.9598 0005195 230.3538 129.7161 13.83815686 36873
PRAETORIAN SDA_609      
1 65572U 25203H   26155.07044999  .00000250  00000+0  21294-3 0  9995
2 65572  81.3058  22.9378 0006064 223.4889 136.5790 13.84283902 36881
PRAETORIAN SDA_610      
1 65573U 25203J   26155.04148374  .00000070  00000+0  52091-4 0  9995
2 65573  81.3016  22.9368 0005860 227.2700 132.7964 13.83850952 36876
PRAETORIAN SDA_611      
1 65574U 25203K   26155.03711088  .00000380  00000+0  33564-3 0  9990
2 65574  81.3014  23.0960 0004767 236.1507 123.9196 13.83308670 36867
PRAETORIAN SDA_612      
1 65575U 25203L   26155.04313155  .00000210  00000+0  17500-3 0  9999
2 65575  81.3037  22.7087 0008504 224.7526 135.2946 13.85037611 36894
PRAETORIAN SDA_613      
1 65576U 25203M   26155.03868694  .00000073  00000+0  55988-4 0  9992
2 65576  81.3009  23.0809 0004949 222.3488 137.7286 13.82764123 36863
PRAETORIAN SDA_614      
1 65577U 25203N   26155.02983740  .00000106  00000+0  84054-4 0  9995
2 65577  81.3023  22.7956 0006387 221.9698 138.0970 13.84777504 36891
PRAETORIAN SDA_615      
1 65578U 25203P   26155.00347463  .00000159  00000+0  13144-3 0  9999
2 65578  81.3032  22.7752 0008268 223.5367 136.5138 13.84435224 36885
PRAETORIAN SDA_616      
1 65579U 25203Q   26155.03593106  .00000227  00000+0  19619-3 0  9999
2 65579  81.3072  23.2335 0004644 233.4389 126.6340 13.83266610 36864
PRAETORIAN SDA_617      
1 65580U 25203R   26155.05641698  .00000122  00000+0  10076-3 0  9995
2 65580  81.3046  23.0467 0006646 222.2687 137.7958 13.83149816 36879
PRAETORIAN SDA_618      
1 65581U 25203S   26155.04400176  .00000254  00000+0  21550-3 0  9994
2 65581  81.3029  22.6730 0008982 226.0896 133.9520 13.84668674 36892
PRAETORIAN SDA_619      
1 65582U 25203T   26155.07175402 -.00002216  00000+0 -20121-2 0  9993
2 65582  81.3047  22.9225 0007360 225.5956 134.4599 13.83820062 37517
PRAETORIAN SDA_620      
1 65583U 25203U   26155.02565213  .00000163  00000+0  13666-3 0  9996
2 65583  81.3037  22.9843 0006969 218.3113 141.7549 13.83617207 36871
PRAETORIAN SDA_621      
1 65584U 25203V   26155.07348463  .00000112  00000+0  90408-4 0  9992
2 65584  81.3029  22.8635 0006713 216.0674 144.0030 13.83800121 36886
PRAETORIAN SDA_601      
1 65585U 25203W   26155.03811481  .00000421  00000+0  37359-3 0  9992
2 65585  81.3045  23.1780 0004660 237.2430 122.8277 13.83166781 36866
