OBJECT_NAME,OBJECT_ID,EPOCH,MEAN_MOTION,ECCENTRICITY,INCLINATION,RA_OF_ASC_NODE,ARG_OF_PERICENTER,MEAN_ANOMALY,EPHEMERIS_TYPE,CLASSIFICATION_TYPE,NORAD_CAT_ID,ELEMENT_SET_NO,REV_AT_EPOCH,BSTAR,MEAN_MOTION_DOT,MEAN_MOTION_DDOT
SAR-LUPE 2,2007-030A,2026-06-04T04:03:32.988384,15.47939644,.0009918,98.1032,258.0116,155.6223,204.5496,0,U,31797,999,5492,.63041E-3,.32926E-3,0
SAPPHIRE,2013-009C,2026-06-04T01:19:50.074752,14.35236900,.0010031,98.4257,334.8234,290.2950,69.7158,0,U,39088,999,69469,.58949E-4,.126E-5,0
PRAETORIAN SDA_602,2025-203A,2026-06-04T00:20:41.632800,13.84341836,.0005148,81.3040,22.9720,222.9758,137.0997,0,U,65565,999,3687,.53079E-4,.71E-6,0
PRAETORIAN SDA_603,2025-203B,2026-06-04T00:53:07.651104,13.83904345,.0008777,81.3049,22.8576,225.5719,134.4720,0,U,65566,999,3688,.17406E-3,.205E-5,0
PRAETORIAN SDA_604,2025-203C,2026-06-04T01:09:47.242944,13.83046131,.0004693,81.3062,23.2398,231.4176,128.6560,0,U,65567,999,3686,.12151E-3,.145E-5,0
PRAETORIAN SDA_605,2025-203D,2026-06-04T00:25:08.931072,13.83433238,.0007446,81.3027,22.9442,221.1321,138.9275,0,U,65568,999,3687,.75106E-4,.94E-6,0
PRAETORIAN SDA_606,2025-203E,2026-06-03T23:59:38.970240,13.83406286,.0005085,81.3063,23.1768,219.3687,140.7100,0,U,65569,999,3686,.87249E-4,.108E-5,0
PRAETORIAN SDA_607,2025-203F,2026-06-04T00:23:14.337024,13.84283742,.0008059,81.3050,22.8456,225.6674,134.3823,0,U,65570,999,3688,.17198E-3,.204E-5,0
PRAETORIAN SDA_608,2025-203G,2026-06-04T01:28:24.638592,13.83815686,.0005195,81.3015,22.9598,230.3538,129.7161,0,U,65571,999,3687,.84207E-4,.105E-5,0
PRAETORIAN SDA_609,2025-203H,2026-06-04T01:41:26.879136,13.84283902,.0006064,81.3058,22.9378,223.4889,136.5790,0,U,65572,999,3688,.21294E-3,.25E-5,0
PRAETORIAN SDA_610,2025-203J,2026-06-04T00:59:44.195136,13.83850952,.000586,81.3016,22.9368,227.2700,132.7964,0,U,65573,999,3687,.52091E-4,.7E-6,0
PRAETORIAN SDA_611,2025-203K,2026-06-04T00:53:26.380032,13.83308670,.0004767,81.3014,23.0960,236.1507,123.9196,0,U,65574,999,3686,.33564E-3,.38E-5,0
PRAETORIAN SDA_612,2025-203L,2026-06-04T01:02:06.565920,13.85037611,.0008504,81.3037,22.7087,224.7526,135.2946,0,U,65575,999,3689,.175E-3,.21E-5,0
PRAETORIAN SDA_613,2025-203M,2026-06-04T00:55:42.551616,13.82764123,.0004949,81.3009,23.0809,222.3488,137.7286,0,U,65576,999,3686,.55988E-4,.73E-6,0
PRAETORIAN SDA_614,2025-203N,2026-06-04T00:42:57.951360,13.84777504,.0006387,81.3023,22.7956,221.9698,138.0970,0,U,65577,999,3689,.84054E-4,.106E-5,0
PRAETORIAN SDA_615,2025-203P,2026-06-04T00:05:00.208032,13.84435224,.0008268,81.3032,22.7752,223.5367,136.5138,0,U,65578,999,3688,.13144E-3,.159E-5,0
PRAETORIAN SDA_616,2025-203Q,2026-06-04T00:51:44.443584,13.83266610,.0004644,81.3072,23.2335,233.4389,126.6340,0,U,65579,999,3686,.19619E-3,.227E-5,0
PRAETORIAN SDA_617,2025-203R,2026-06-04T01:21:14.427072,13.83149816,.0006646,81.3046,23.0467,222.2687,137.7958,0,U,65580,999,3687,.10076E-3,.122E-5,0
PRAETORIAN SDA_618,2025-203S,2026-06-04T01:03:21.752064,13.84668674,.0008982,81.3029,22.6730,226.0896,133.9520,0,U,65581,999,3689,.2155E-3,.254E-5,0
PRAETORIAN SDA_619,2025-203T,2026-06-04T01:43:19.547328,13.83820062,.000736,81.3047,22.9225,225.5956,134.4599,0,U,65582,999,3751,-.20121E-2,-.2216E-4,0
PRAETORIAN SDA_620,2025-203U,2026-06-04T00:36:56.344032,13.83617207,.0006969,81.3037,22.9843,218.3113,141.7549,0,U,65583,999,3687,.13666E-3,.163E-5,0
PRAETORIAN SDA_621,2025-203V,2026-06-04T01:45:49.072032,13.83800121,.0006713,81.3029,22.8635,216.0674,144.0030,0,U,65584,999,3688,.90408E-4,.112E-5,0
PRAETORIAN SDA_601,2025-203W,2026-06-04T00:54:53.119584,13.83166781,.000466,81.3045,23.1780,237.2430,122.8277,0,U,65585,999,3686,.37359E-3,.421E-5,0
